#aV2020  2  7  0  0  0.00000000     288 DD+AD WGS84 FIT  NGA
## 2091 432000.00000000   300.00000000 58886 0.0000000000000
+   32     1  2  3  4  5  6  7  8  9 10 11 12 13 14 15 16 17
+         18 19 20 21 22 23 24 25 26 27 28 29 30 31 32  0  0
+          0  0  0  0  0  0  0  0  0  0  0  0  0  0  0  0  0
+          0  0  0  0  0  0  0  0  0  0  0  0  0  0  0  0  0
+          0  0  0  0  0  0  0  0  0  0  0  0  0  0  0  0  0
++         2  2  2  2  2  2  2  2  2  2  2  2  2  2  2  2  2
++         2  2  2  2  2  2  2  2  2  2  2  2  2  2  2  0  0
++         0  0  0  0  0  0  0  0  0  0  0  0  0  0  0  0  0
++         0  0  0  0  0  0  0  0  0  0  0  0  0  0  0  0  0
++         0  0  0  0  0  0  0  0  0  0  0  0  0  0  0  0  0
%c cc cc ccc ccc cccc cccc cccc cccc ccccc ccccc ccccc ccccc
%c cc cc ccc ccc cccc cccc cccc cccc ccccc ccccc ccccc ccccc
%f  0.0000000  0.000000000  0.00000000000  0.000000000000000
%f  0.0000000  0.000000000  0.00000000000  0.000000000000000
%i    0    0    0    0      0      0      0      0         0
%i    0    0    0    0      0      0      0      0         0
/*      NGA, ST. LOUIS,MO.                                  
/*   EPHEMERIS COMPUTED FROM 2 DAYS OF DATA                 
/*   EPOCHA v5 SMOOTHER                                     
/*   G1762 IERS2010 SATAF SATAPC                            
*  2020  2  7 23 10  0.00000000
P  1  14470.217739 -21599.992440   4278.098751   -287.792274                    
V  1   -414.468735   6244.256896  31742.710304     -0.121483                    
P  2 -16591.064240   3306.351807 -19814.321568   -400.666067                    
V  2   9346.725628 -24966.392533 -11708.722991     -0.069810                    
P  3  14889.587033 -13035.623200 -17726.187214    -89.435747                    
V  3  22471.714687    477.544647  18675.621870     -0.085610                    
P  4   5974.265846 -16781.041273 -19688.179344    -45.672201                    
V  4  13980.721745  20790.163117 -13494.847572     -0.053953                    
P  5 -26586.733066   2069.461054   -110.195758     -7.254863                    
V  5   -256.130857  -2917.516811 -31434.416595     -0.005660                    
P  6 -11399.936030  -9931.976839 -21778.845152   -202.833208                    
V  6  12886.623596 -24562.871309   4480.900035     -0.095676                    
P  7   2894.821782 -23499.055040  11819.536658   -209.535600                    
V  7   9397.185874 -11734.319292 -26743.717446     -0.083953                    
P  8  13556.697228  -6697.031425  21877.344372    -22.972197                    
V  8  15328.288523  23028.853803  -2214.845762     -0.012772                    
P  9  -3623.306490 -22627.223907 -13473.413689   -150.545986                    
V  9  11482.925275  12817.657919 -24732.300858     -0.085759                    
P 10  15376.132195  11864.581270  18297.828362   -237.379914                    
V 10 -22877.081884   2547.239078  17419.904517     -0.131738                    
P 11  12232.695041 -17456.059047  15525.862167   -367.558493                    
V 11   2614.947492  20685.175221  20247.127011      0.108047                    
P 12 -18377.439990  10502.871288 -16163.436164    153.719912                    
V 12 -20098.317531  -1919.841690  22078.107789     -0.041579                    
P 13 -16748.377506  -2452.411421  20364.088110    -14.444558                    
V 13 -10501.149288 -23905.767478 -11367.305686      0.027137                    
P 14  17803.665486  15768.020095 -11681.873361    -33.874971                    
V 14   5196.818354  14561.991456  26637.468352      0.023769                    
P 15 -13127.801308   8813.237933  21045.887021   -253.122970                    
V 15 -17243.519603 -21499.526893  -1347.381759      0.026245                    
P 16  26789.229290   1065.787620    -97.451154   -122.055820                    
V 16     58.649969   1819.268711 -31879.840325     -0.041159                    
P 17 -14372.802460 -22213.760398  -2203.758633    212.258365                    
V 17    138.660879  -3893.164016  32070.227295      0.063872                    
P 18  16459.596231 -16915.119193  11586.159566      1.423566                    
V 18  -3863.493169  15286.323473  26738.213037      0.019955                    
P 19 -17000.047863 -17557.419404 -10686.437574   -201.730710                    
V 19  -4364.759306 -12488.844575  28241.541102      0.051564                    
P 20   4134.543670  15253.237590  21264.593494    527.855045                    
V 20 -26850.875960   4989.189735   1429.097462      0.000400                    
P 21    419.559624  23403.598599  13569.427902    -44.285426                    
V 21  -8192.969554  13748.336459 -24700.937216      0.054366                    
P 22  21470.016618 -10977.134850 -10783.684297   -784.117456                    
V 22  14449.234740   1508.764742  26803.706770     -0.008164                    
P 23   4594.789786 -17581.868185 -18884.616217   -137.856063                    
V 23  15538.664878  19565.804262 -14546.288800      0.025609                    
P 24 -14475.269650  20998.176482   6512.047913     -8.718781                    
V 24     42.388294  -9411.310697  29935.221500     -0.004947                    
P 25  -5313.771413  15041.323155 -21419.318876    -13.909705                    
V 25 -26697.828535    617.279911   7400.237467      0.012251                    
P 26  24491.556848   4778.150190  -9442.800503    143.759037                    
V 26 -11637.075502   3680.123591 -28191.199628      0.078082                    
P 27  18304.820450   5278.721709  18525.710586   -204.558062                    
V 27  11972.523107  20376.359601 -17202.419189     -0.110972                    
P 28 -15313.929342 -12774.484725  18064.178458    740.609312                    
V 28  21803.224932   -331.534223  19009.816959     -0.022918                    
P 29   1549.859401  22322.466539 -14326.918064    -27.442192                    
V 29 -10143.447838 -15067.294468 -24643.737353     -0.095786                    
P 30  -6042.130033 -17591.991227  18915.400090   -147.856324                    
V 30  13279.910381 -20188.991106 -14755.062060     -0.089888                    
P 31  13469.270040   7251.583100 -21748.116217    -21.740505                    
V 31 -13383.349930  24071.817477    191.407554     -0.024870                    
P 32  16286.419059  20848.380459  -3032.371708    206.440452                    
V 32   -191.348809   4816.201279  31264.775221      0.100310                    
EOF
